{"type": "FeatureCollection", "features": [ {"type": "Feature", "properties": {"norad_id": 17070, "name": "POLAR BEAR", "group": "nnss", "lat": -69.41789179689165, "lon": -177.7507820238702, "alt_km": 1015.0519912324862, "timestamp": "2025-12-25T07:41:09.991674+00:00", "meta": {"OBJECT_NAME": "POLAR BEAR", "OBJECT_ID": "1986-088A", "EPOCH": "2025-12-24T22:07:10.327584", "MEAN_MOTION": 13.75253229, "ECCENTRICITY": 0.00412851, "INCLINATION": 89.617, "RA_OF_ASC_NODE": 183.2859, "ARG_OF_PERICENTER": 84.2247, "MEAN_ANOMALY": 34.3522, "EPHEMERIS_TYPE": 0, "CLASSIFICATION_TYPE": "U", "NORAD_CAT_ID": 17070, "ELEMENT_SET_NO": 999, "REV_AT_EPOCH": 96146, "BSTAR": 9.5098307e-05, "MEAN_MOTION_DOT": 1.03e-06, "MEAN_MOTION_DDOT": 0}, "tle": {"line1": "1 17070U 86088A   25358.92164731  .00000103  00000+0  95098-4 0  9999", "line2": "2 17070  89.6170 183.2859 0041285  84.2247  34.3522 13.75253229961465"}}, "geometry": {"type": "Point", "coordinates": [-177.7507820238702, -69.41789179689165]}}, {"type": "Feature", "properties": {"norad_id": 18361, "name": "OSCAR 27", "group": "nnss", "lat": -77.06021142637393, "lon": -101.88461977382586, "alt_km": 1070.5180548831413, "timestamp": "2025-12-25T07:41:09.991685+00:00", "meta": {"OBJECT_NAME": "OSCAR 27", "OBJECT_ID": "1987-080A", "EPOCH": "2025-12-24T17:55:02.715744", "MEAN_MOTION": 13.44909135, "ECCENTRICITY": 0.01039285, "INCLINATION": 90.3736, "RA_OF_ASC_NODE": 79.7212, "ARG_OF_PERICENTER": 189.2422, "MEAN_ANOMALY": 170.6816, "EPHEMERIS_TYPE": 0, "CLASSIFICATION_TYPE": "U", "NORAD_CAT_ID": 18361, "ELEMENT_SET_NO": 999, "REV_AT_EPOCH": 87718, "BSTAR": 0.00017485436, "MEAN_MOTION_DOT": 1.14e-06, "MEAN_MOTION_DDOT": 0}, "tle": {"line1": "1 18361U 87080A   25358.74655921  .00000114  00000+0  17485-3 0  9997", "line2": "2 18361  90.3736  79.7212 0103928 189.2422 170.6816 13.44909135877187"}}, "geometry": {"type": "Point", "coordinates": [-101.88461977382586, -77.06021142637393]}}, {"type": "Feature", "properties": {"norad_id": 18362, "name": "OSCAR 29", "group": "nnss", "lat": -68.15436434857646, "lon": -100.73313901539773, "alt_km": 1037.5863512037122, "timestamp": "2025-12-25T07:41:09.991695+00:00", "meta": {"OBJECT_NAME": "OSCAR 29", "OBJECT_ID": "1987-080B", "EPOCH": "2025-12-24T18:31:37.262784", "MEAN_MOTION": 13.44450686, "ECCENTRICITY": 0.01047338, "INCLINATION": 90.3749, "RA_OF_ASC_NODE": 80.1821, "ARG_OF_PERICENTER": 212.3351, "MEAN_ANOMALY": 262.8592, "EPHEMERIS_TYPE": 0, "CLASSIFICATION_TYPE": "U", "NORAD_CAT_ID": 18362, "ELEMENT_SET_NO": 999, "REV_AT_EPOCH": 87671, "BSTAR": 0.00016990363, "MEAN_MOTION_DOT": 1.1e-06, "MEAN_MOTION_DDOT": 0}, "tle": {"line1": "1 18362U 87080B   25358.77195906  .00000110  00000+0  16990-3 0  9999", "line2": "2 18362  90.3749  80.1821 0104733 212.3351 262.8592 13.44450686876713"}}, "geometry": {"type": "Point", "coordinates": [-100.73313901539773, -68.15436434857646]}}, {"type": "Feature", "properties": {"norad_id": 19070, "name": "OSCAR 23", "group": "nnss", "lat": -11.815024834041182, "lon": 16.84914664488937, "alt_km": 1290.847827996673, "timestamp": "2025-12-25T07:41:09.991705+00:00", "meta": {"OBJECT_NAME": "OSCAR 23", "OBJECT_ID": "1988-033A", "EPOCH": "2025-12-24T19:56:45.202272", "MEAN_MOTION": 13.27789006, "ECCENTRICITY": 0.01904704, "INCLINATION": 90.3203, "RA_OF_ASC_NODE": 16.7669, "ARG_OF_PERICENTER": 146.3829, "MEAN_ANOMALY": 25.8694, "EPHEMERIS_TYPE": 0, "CLASSIFICATION_TYPE": "U", "NORAD_CAT_ID": 19070, "ELEMENT_SET_NO": 999, "REV_AT_EPOCH": 82413, "BSTAR": 0.00010964086, "MEAN_MOTION_DOT": 6.4e-07, "MEAN_MOTION_DDOT": 0}, "tle": {"line1": "1 19070U 88033A   25358.83107873  .00000064  00000+0  10964-3 0  9991", "line2": "2 19070  90.3203  16.7669 0190470 146.3829  25.8694 13.27789006824130"}}, "geometry": {"type": "Point", "coordinates": [16.84914664488937, -11.815024834041182]}}, {"type": "Feature", "properties": {"norad_id": 19071, "name": "OSCAR 32", "group": "nnss", "lat": 73.87166171788671, "lon": -161.975076757132, "alt_km": 1018.7380671850251, "timestamp": "2025-12-25T07:41:09.991716+00:00", "meta": {"OBJECT_NAME": "OSCAR 32", "OBJECT_ID": "1988-033B", "EPOCH": "2025-12-24T07:42:13.754592", "MEAN_MOTION": 13.27955652, "ECCENTRICITY": 0.01891926, "INCLINATION": 90.3208, "RA_OF_ASC_NODE": 16.8837, "ARG_OF_PERICENTER": 134.7211, "MEAN_ANOMALY": 237.9771, "EPHEMERIS_TYPE": 0, "CLASSIFICATION_TYPE": "U", "NORAD_CAT_ID": 19071, "ELEMENT_SET_NO": 999, "REV_AT_EPOCH": 82419, "BSTAR": 8.5937937e-05, "MEAN_MOTION_DOT": 5.3e-07, "MEAN_MOTION_DDOT": 0}, "tle": {"line1": "1 19071U 88033B   25358.32099253  .00000053  00000+0  85938-4 0  9990", "line2": "2 19071  90.3208  16.8837 0189192 134.7211 237.9771 13.27955652824199"}}, "geometry": {"type": "Point", "coordinates": [-161.975076757132, 73.87166171788671]}}, {"type": "Feature", "properties": {"norad_id": 19223, "name": "NOVA 2", "group": "nnss", "lat": 77.61571633163497, "lon": 78.31904354346736, "alt_km": 1168.4472195886337, "timestamp": "2025-12-25T07:41:09.991731+00:00", "meta": {"OBJECT_NAME": "NOVA 2", "OBJECT_ID": "1988-052A", "EPOCH": "2025-12-24T19:11:53.971008", "MEAN_MOTION": 13.22937139, "ECCENTRICITY": 0.00295439, "INCLINATION": 89.9863, "RA_OF_ASC_NODE": 78.2573, "ARG_OF_PERICENTER": 343.513, "MEAN_ANOMALY": 137.1394, "EPHEMERIS_TYPE": 0, "CLASSIFICATION_TYPE": "U", "NORAD_CAT_ID": 19223, "ELEMENT_SET_NO": 999, "REV_AT_EPOCH": 81107, "BSTAR": 0.00014443023, "MEAN_MOTION_DOT": 6.9e-07, "MEAN_MOTION_DDOT": 0}, "tle": {"line1": "1 19223U 88052A   25358.79993022  .00000069  00000+0  14443-3 0  9997", "line2": "2 19223  89.9863  78.2573 0029543 343.5130 137.1394 13.22937139811071"}}, "geometry": {"type": "Point", "coordinates": [78.31904354346736, 77.61571633163497]}}, {"type": "Feature", "properties": {"norad_id": 19419, "name": "OSCAR 25", "group": "nnss", "lat": -35.1730378350164, "lon": 20.308594532677766, "alt_km": 1135.7972590179943, "timestamp": "2025-12-25T07:41:09.991752+00:00", "meta": {"OBJECT_NAME": "OSCAR 25", "OBJECT_ID": "1988-074A", "EPOCH": "2025-12-24T13:00:49.693248", "MEAN_MOTION": 13.42625466, "ECCENTRICITY": 0.00951606, "INCLINATION": 90.0336, "RA_OF_ASC_NODE": 20.2823, "ARG_OF_PERICENTER": 211.7174, "MEAN_ANOMALY": 313.9543, "EPHEMERIS_TYPE": 0, "CLASSIFICATION_TYPE": "U", "NORAD_CAT_ID": 19419, "ELEMENT_SET_NO": 999, "REV_AT_EPOCH": 82798, "BSTAR": 0.00013246409, "MEAN_MOTION_DOT": 8.6e-07, "MEAN_MOTION_DDOT": 0}, "tle": {"line1": "1 19419U 88074A   25358.54224182  .00000086  00000+0  13246-3 0  9994", "line2": "2 19419  90.0336  20.2823 0095160 211.7174 313.9543 13.42625466827989"}}, "geometry": {"type": "Point", "coordinates": [20.308594532677766, -35.1730378350164]}}, {"type": "Feature", "properties": {"norad_id": 19420, "name": "OSCAR 31", "group": "nnss", "lat": -26.10443831269794, "lon": -159.38045855051524, "alt_km": 1035.3941739217034, "timestamp": "2025-12-25T07:41:09.991771+00:00", "meta": {"OBJECT_NAME": "OSCAR 31", "OBJECT_ID": "1988-074B", "EPOCH": "2025-12-24T20:48:18.577152", "MEAN_MOTION": 13.42586519, "ECCENTRICITY": 0.00935792, "INCLINATION": 90.0354, "RA_OF_ASC_NODE": 20.6353, "ARG_OF_PERICENTER": 204.9262, "MEAN_ANOMALY": 331.0281, "EPHEMERIS_TYPE": 0, "CLASSIFICATION_TYPE": "U", "NORAD_CAT_ID": 19420, "ELEMENT_SET_NO": 999, "REV_AT_EPOCH": 82813, "BSTAR": 0.00010318326, "MEAN_MOTION_DOT": 6.9e-07, "MEAN_MOTION_DDOT": 0}, "tle": {"line1": "1 19420U 88074B   25358.86688168  .00000069  00000+0  10318-3 0  9997", "line2": "2 19420  90.0354  20.6353 0093579 204.9262 331.0281 13.42586519828130"}}, "geometry": {"type": "Point", "coordinates": [-159.38045855051524, -26.10443831269794]}}]}